NAVSTAR 78 (USA 293)    
1 44506U 19056A   22228.73234260 -.00000090  00000+0  00000+0 0  9991
2 44506  55.7072  26.6517 0026996 178.6116 249.6642  2.00557841 21981
BEIDOU-3 M23            
1 44542U 19061A   22229.40836475  .00000057  00000+0  00000+0 0  9990
2 44542  54.5709 230.0406 0008667 325.3338  34.6145  1.86231475 19729
BEIDOU-3 M24            
1 44543U 19061B   22230.16332862  .00000065  00000+0  00000+0 0  9996
2 44543  54.5677 229.9845 0006330 307.1422 110.3657  1.86231791 19737
BEIDOU-3 M21            
1 44793U 19078A   22229.86000019 -.00000119  00000+0  10000-3 0  9998
2 44793  54.9506 348.5046 0005621  22.7437  24.4996  1.86232338 18590
BEIDOU-3 M22            
1 44794U 19078B   22229.72938167 -.00000119  00000+0  00000+0 0  9993
2 44794  54.9247 348.4990 0003593  22.3615 209.0806  1.86232802 18586
ELEKTRO-L 3             
1 44903U 19095A   22230.51262462 -.00000105  00000+0  00000+0 0  9996
2 44903   0.0779 297.5715 0001468 214.7908  75.0483  1.00272702  9682
NAVSTAR 79 (USA 304)    
1 45854U 20041A   22230.36263427 -.00000056  00000+0  00000+0 0  9995
2 45854  55.5685  83.8556 0024933 176.6274 285.2898  2.00558122 15981
NAVSTAR 80 (USA 309)    
1 46826U 20078A   22230.47062156  .00000009  00000+0  00000+0 0  9990
2 46826  54.5275 267.5778 0022629 190.6180 325.9047  2.00565199 13454
GSAT0223 (GALILEO 27)   
1 49809U 21116A   22226.47850171 -.00000092  00000+0  00000+0 0  9998
2 49809  57.1903  19.5164 0003170 152.5321 214.2841  1.70475863  4279
GSAT0224 (GALILEO 28)   
1 49810U 21116B   22229.80240951 -.00000092  00000+0  00000+0 0  9999
2 49810  57.1921  19.4244 0002849 142.7962 216.4553  1.70476083  4340
