[{"OBJECT_NAME":"GPS BIII-2","OBJECT_ID":"2019-056A","EPOCH":"2022-08-16T17:34:34.400640","MEAN_MOTION":2.00557841,"ECCENTRICITY":0.0026996,"INCLINATION":55.7072,"RA_OF_ASC_NODE":26.6517,"ARG_OF_PERICENTER":178.6116,"MEAN_ANOMALY":249.6642,"EPHEMERIS_TYPE":0,"CLASSIFICATION_TYPE":"U","NORAD_CAT_ID":44506,"ELEMENT_SET_NO":999,"REV_AT_EPOCH":2198,"BSTAR":0,"MEAN_MOTION_DOT":-9.0e-7,"MEAN_MOTION_DDOT":0},{"OBJECT_NAME":"BEIDOU-3 M23","OBJECT_ID":"2019-061A","EPOCH":"2022-08-17T09:48:02.714400","MEAN_MOTION":1.86231475,"ECCENTRICITY":0.0008667,"INCLINATION":54.5709,"RA_OF_ASC_NODE":230.0406,"ARG_OF_PERICENTER":325.3338,"MEAN_ANOMALY":34.6145,"EPHEMERIS_TYPE":0,"CLASSIFICATION_TYPE":"U","NORAD_CAT_ID":44542,"ELEMENT_SET_NO":999,"REV_AT_EPOCH":1972,"BSTAR":0,"MEAN_MOTION_DOT":5.7e-7,"MEAN_MOTION_DDOT":0},{"OBJECT_NAME":"BEIDOU-3 M24","OBJECT_ID":"2019-061B","EPOCH":"2022-08-18T03:55:11.592768","MEAN_MOTION":1.86231791,"ECCENTRICITY":0.000633,"INCLINATION":54.5677,"RA_OF_ASC_NODE":229.9845,"ARG_OF_PERICENTER":307.1422,"MEAN_ANOMALY":110.3657,"EPHEMERIS_TYPE":0,"CLASSIFICATION_TYPE":"U","NORAD_CAT_ID":44543,"ELEMENT_SET_NO":999,"REV_AT_EPOCH":1973,"BSTAR":0,"MEAN_MOTION_DOT":6.5e-7,"MEAN_MOTION_DDOT":0},{"OBJECT_NAME":"BEIDOU-3 M21","OBJECT_ID":"2019-078A","EPOCH":"2022-08-17T20:38:24.016416","MEAN_MOTION":1.86232338,"ECCENTRICITY":0.0005621,"INCLINATION":54.9506,"RA_OF_ASC_NODE":348.5046,"ARG_OF_PERICENTER":22.7437,"MEAN_ANOMALY":24.4996,"EPHEMERIS_TYPE":0,"CLASSIFICATION_TYPE":"U","NORAD_CAT_ID":44793,"ELEMENT_SET_NO":999,"REV_AT_EPOCH":1859,"BSTAR":0.0001,"MEAN_MOTION_DOT":-1.19e-6,"MEAN_MOTION_DDOT":0},{"OBJECT_NAME":"BEIDOU-3 M22","OBJECT_ID":"2019-078B","EPOCH":"2022-08-17T17:30:18.576288","MEAN_MOTION":1.86232802,"ECCENTRICITY":0.0003593,"INCLINATION":54.9247,"RA_OF_ASC_NODE":348.499,"ARG_OF_PERICENTER":22.3615,"MEAN_ANOMALY":209.0806,"EPHEMERIS_TYPE":0,"CLASSIFICATION_TYPE":"U","NORAD_CAT_ID":44794,"ELEMENT_SET_NO":999,"REV_AT_EPOCH":1858,"BSTAR":0,"MEAN_MOTION_DOT":-1.19e-6,"MEAN_MOTION_DDOT":0},{"OBJECT_NAME":"ELEKTRO-L 3","OBJECT_ID":"2019-095A","EPOCH":"2022-08-18T12:18:10.767168","MEAN_MOTION":1.00272702,"ECCENTRICITY":0.0001468,"INCLINATION":0.0779,"RA_OF_ASC_NODE":297.5715,"ARG_OF_PERICENTER":214.7908,"MEAN_ANOMALY":75.0483,"EPHEMERIS_TYPE":0,"CLASSIFICATION_TYPE":"U","NORAD_CAT_ID":44903,"ELEMENT_SET_NO":999,"REV_AT_EPOCH":968,"BSTAR":0,"MEAN_MOTION_DOT":-1.05e-6,"MEAN_MOTION_DDOT":0},{"OBJECT_NAME":"GPS BIII-3","OBJECT_ID":"2020-041A","EPOCH":"2022-08-18T08:42:11.600928","MEAN_MOTION":2.00558122,"ECCENTRICITY":0.0024933,"INCLINATION":55.5685,"RA_OF_ASC_NODE":83.8556,"ARG_OF_PERICENTER":176.6274,"MEAN_ANOMALY":285.2898,"EPHEMERIS_TYPE":0,"CLASSIFICATION_TYPE":"U","NORAD_CAT_ID":45854,"ELEMENT_SET_NO":999,"REV_AT_EPOCH":1598,"BSTAR":0,"MEAN_MOTION_DOT":-5.6e-7,"MEAN_MOTION_DDOT":0},{"OBJECT_NAME":"GPS BIII-4","OBJECT_ID":"2020-078A","EPOCH":"2022-08-18T11:17:41.702784","MEAN_MOTION":2.00565199,"ECCENTRICITY":0.0022629,"INCLINATION":54.5275,"RA_OF_ASC_NODE":267.5778,"ARG_OF_PERICENTER":190.618,"MEAN_ANOMALY":325.9047,"EPHEMERIS_TYPE":0,"CLASSIFICATION_TYPE":"U","NORAD_CAT_ID":46826,"ELEMENT_SET_NO":999,"REV_AT_EPOCH":1345,"BSTAR":0,"MEAN_MOTION_DOT":9.0e-8,"MEAN_MOTION_DDOT":0},{"OBJECT_NAME":"GSAT0223 (GALILEO 27)","OBJECT_ID":"2021-116A","EPOCH":"2022-08-14T11:29:02.547744","MEAN_MOTION":1.70475863,"ECCENTRICITY":0.000317,"INCLINATION":57.1903,"RA_OF_ASC_NODE":19.5164,"ARG_OF_PERICENTER":152.5321,"MEAN_ANOMALY":214.2841,"EPHEMERIS_TYPE":0,"CLASSIFICATION_TYPE":"U","NORAD_CAT_ID":49809,"ELEMENT_SET_NO":999,"REV_AT_EPOCH":427,"BSTAR":0,"MEAN_MOTION_DOT":-9.2e-7,"MEAN_MOTION_DDOT":0},{"OBJECT_NAME":"GSAT0224 (GALILEO 28)","OBJECT_ID":"2021-116B","EPOCH":"2022-08-17T19:15:28.181664","MEAN_MOTION":1.70476083,"ECCENTRICITY":0.0002849,"INCLINATION":57.1921,"RA_OF_ASC_NODE":19.4244,"ARG_OF_PERICENTER":142.7962,"MEAN_ANOMALY":216.4553,"EPHEMERIS_TYPE":0,"CLASSIFICATION_TYPE":"U","NORAD_CAT_ID":49810,"ELEMENT_SET_NO":999,"REV_AT_EPOCH":434,"BSTAR":0,"MEAN_MOTION_DOT":-9.2e-7,"MEAN_MOTION_DDOT":0}]